{
    "links": {
        "self": "http://www.neowsapp.com/rest/v1/neo/3716633?api_key=iIulBulltgU6a56xZRHN4H3l9WmuAYTsLGpBGhQ2"
    },
    "id": "3716633",
    "neo_reference_id": "3716633",
    "name": "(2015 HR9)",
    "designation": "2015 HR9",
    "nasa_jpl_url": "http://ssd.jpl.nasa.gov/sbdb.cgi?sstr=3716633",
    "absolute_magnitude_h": 25.6,
    "estimated_diameter": {
        "kilometers": {
            "estimated_diameter_min": 0.0201629919,
            "estimated_diameter_max": 0.0450858206
        },
        "meters": {
            "estimated_diameter_min": 20.1629919443,
            "estimated_diameter_max": 45.0858206172
        },
        "miles": {
            "estimated_diameter_min": 0.0125286985,
            "estimated_diameter_max": 0.0280150214
        },
        "feet": {
            "estimated_diameter_min": 66.1515504905,
            "estimated_diameter_max": 147.9193637137
        }
    },
    "is_potentially_hazardous_asteroid": false,
    "close_approach_data": [
        {
            "close_approach_date": "2015-03-14",
            "close_approach_date_full": "2015-Mar-14 09:46",
            "epoch_date_close_approach": 1426326360000,
            "relative_velocity": {
                "kilometers_per_second": "8.730964584",
                "kilometers_per_hour": "31431.4725024797",
                "miles_per_hour": "19530.2946779991"
            },
            "miss_distance": {
                "astronomical": "0.0638827627",
                "lunar": "24.8503946903",
                "kilometers": "9556725.229635449",
                "miles": "5938273.6962852362"
            },
            "orbiting_body": "Earth"
        }
    ],
    "orbital_data": {
        "orbit_id": "4",
        "orbit_determination_date": "2017-04-06 08:34:14",
        "first_observation_date": "2015-04-18",
        "last_observation_date": "2015-04-22",
        "data_arc_in_days": 4,
        "observations_used": 19,
        "orbit_uncertainty": "9",
        "minimum_orbit_intersection": ".0636556",
        "jupiter_tisserand_invariant": "3.628",
        "epoch_osculation": "2457132.5",
        "eccentricity": ".5258100080063796",
        "semi_major_axis": "2.024442148086399",
        "inclination": "4.519372148111022",
        "ascending_node_longitude": "223.619675990693",
        "orbital_period": "1052.098696970805",
        "perihelion_distance": ".9599702059926375",
        "perihelion_argument": "277.5742084137926",
        "aphelion_distance": "3.088914090180161",
        "perihelion_time": "2457070.468767573530",
        "mean_anomaly": "21.22542660477117",
        "mean_motion": ".3421732210452399",
        "equinox": "J2000",
        "orbit_class": {
            "orbit_class_type": "APO",
            "orbit_class_description": "Near-Earth asteroid orbits which cross the Earth’s orbit similar to that of 1862 Apollo",
            "orbit_class_range": "a (semi-major axis) > 1.0 AU; q (perihelion) < 1.017 AU"
        }
    },
    "is_sentry_object": false
}